{"type": "FeatureCollection", "features": [ {"type": "Feature", "properties": {"norad_id": 34833, "name": "IRIDIUM 33 DEB", "group": "iridium-33-debris", "lat": -70.71060459985502, "lon": -120.27850263374339, "alt_km": 740.0534306182335, "timestamp": "2025-12-16T13:52:37.907321+00:00", "meta": {"OBJECT_NAME": "IRIDIUM 33 DEB", "OBJECT_ID": "1997-051MH", "EPOCH": "2025-12-15T10:20:22.808256", "MEAN_MOTION": 14.52396502, "ECCENTRICITY": 0.00217393, "INCLINATION": 86.3936, "RA_OF_ASC_NODE": 49.8343, "ARG_OF_PERICENTER": 90.4638, "MEAN_ANOMALY": 284.9984, "EPHEMERIS_TYPE": 0, "CLASSIFICATION_TYPE": "U", "NORAD_CAT_ID": 34833, "ELEMENT_SET_NO": 999, "REV_AT_EPOCH": 87754, "BSTAR": 0.00054738094, "MEAN_MOTION_DOT": 2.256e-05, "MEAN_MOTION_DDOT": 0}, "tle": {"line1": "1 34833U 97051MH  25349.43081954  .00002256  00000+0  54738-3 0  9994", "line2": "2 34833  86.3936  49.8343 0021739  90.4638 284.9984 14.52396502877543"}}, "geometry": {"type": "Point", "coordinates": [-120.27850263374339, -70.71060459985502]}}, {"type": "Feature", "properties": {"norad_id": 34870, "name": "IRIDIUM 33 DEB", "group": "iridium-33-debris", "lat": -15.469836217235299, "lon": 133.34924547041336, "alt_km": 634.8109869809077, "timestamp": "2025-12-16T13:52:37.907331+00:00", "meta": {"OBJECT_NAME": "IRIDIUM 33 DEB", "OBJECT_ID": "1997-051MQ", "EPOCH": "2025-12-15T20:52:07.322880", "MEAN_MOTION": 14.7649675, "ECCENTRICITY": 0.00166647, "INCLINATION": 86.3098, "RA_OF_ASC_NODE": 312.6504, "ARG_OF_PERICENTER": 171.0618, "MEAN_ANOMALY": 219.7465, "EPHEMERIS_TYPE": 0, "CLASSIFICATION_TYPE": "U", "NORAD_CAT_ID": 34870, "ELEMENT_SET_NO": 999, "REV_AT_EPOCH": 88957, "BSTAR": 0.0009319058, "MEAN_MOTION_DOT": 6.529e-05, "MEAN_MOTION_DDOT": 0}, "tle": {"line1": "1 34870U 97051MQ  25349.86952920  .00006529  00000+0  93191-3 0  9995", "line2": "2 34870  86.3098 312.6504 0016664 171.0618 219.7465 14.76496750889576"}}, "geometry": {"type": "Point", "coordinates": [133.34924547041336, -15.469836217235299]}}, {"type": "Feature", "properties": {"norad_id": 34896, "name": "IRIDIUM 33 DEB", "group": "iridium-33-debris", "lat": -75.80854045428508, "lon": 159.67327763079885, "alt_km": 670.4457437073315, "timestamp": "2025-12-16T13:52:37.907342+00:00", "meta": {"OBJECT_NAME": "IRIDIUM 33 DEB", "OBJECT_ID": "1997-051MY", "EPOCH": "2025-12-15T05:52:43.272192", "MEAN_MOTION": 14.66306707, "ECCENTRICITY": 0.00245889, "INCLINATION": 86.3284, "RA_OF_ASC_NODE": 325.5614, "ARG_OF_PERICENTER": 205.2361, "MEAN_ANOMALY": 217.3935, "EPHEMERIS_TYPE": 0, "CLASSIFICATION_TYPE": "U", "NORAD_CAT_ID": 34896, "ELEMENT_SET_NO": 999, "REV_AT_EPOCH": 87656, "BSTAR": 0.00064086297, "MEAN_MOTION_DOT": 3.573e-05, "MEAN_MOTION_DDOT": 0}, "tle": {"line1": "1 34896U 97051MY  25349.24494528  .00003573  00000+0  64086-3 0  9997", "line2": "2 34896  86.3284 325.5614 0024588 205.2361 217.3935 14.66306707876567"}}, "geometry": {"type": "Point", "coordinates": [159.67327763079885, -75.80854045428508]}}, {"type": "Feature", "properties": {"norad_id": 34926, "name": "IRIDIUM 33 DEB", "group": "iridium-33-debris", "lat": 0.6886525782662656, "lon": -173.55187217235465, "alt_km": 722.8629030808743, "timestamp": "2025-12-16T13:52:37.907359+00:00", "meta": {"OBJECT_NAME": "IRIDIUM 33 DEB", "OBJECT_ID": "1997-051NF", "EPOCH": "2025-12-15T19:43:01.131168", "MEAN_MOTION": 14.54563676, "ECCENTRICITY": 0.00748103, "INCLINATION": 86.1336, "RA_OF_ASC_NODE": 6.8454, "ARG_OF_PERICENTER": 282.1125, "MEAN_ANOMALY": 258.1546, "EPHEMERIS_TYPE": 0, "CLASSIFICATION_TYPE": "U", "NORAD_CAT_ID": 34926, "ELEMENT_SET_NO": 999, "REV_AT_EPOCH": 86501, "BSTAR": 0.0034895207, "MEAN_MOTION_DOT": 0.00015491, "MEAN_MOTION_DDOT": 0}, "tle": {"line1": "1 34926U 97051NF  25349.82154087  .00015491  00000+0  34895-2 0  9994", "line2": "2 34926  86.1336   6.8454 0074810 282.1125 258.1546 14.54563676865019"}}, "geometry": {"type": "Point", "coordinates": [-173.55187217235465, 0.6886525782662656]}}, {"type": "Feature", "properties": {"norad_id": 34985, "name": "IRIDIUM 33 DEB", "group": "iridium-33-debris", "lat": 47.4813160641944, "lon": -128.72782680253943, "alt_km": 743.6216968535036, "timestamp": "2025-12-16T13:52:37.907379+00:00", "meta": {"OBJECT_NAME": "IRIDIUM 33 DEB", "OBJECT_ID": "1997-051NR", "EPOCH": "2025-12-15T23:04:55.240608", "MEAN_MOTION": 14.42024534, "ECCENTRICITY": 0.00210591, "INCLINATION": 86.3698, "RA_OF_ASC_NODE": 55.5052, "ARG_OF_PERICENTER": 208.7794, "MEAN_ANOMALY": 325.5524, "EPHEMERIS_TYPE": 0, "CLASSIFICATION_TYPE": "U", "NORAD_CAT_ID": 34985, "ELEMENT_SET_NO": 999, "REV_AT_EPOCH": 87221, "BSTAR": 0.00049841253, "MEAN_MOTION_DOT": 1.659e-05, "MEAN_MOTION_DDOT": 0}, "tle": {"line1": "1 34985U 97051NR  25349.96175047  .00001659  00000+0  49841-3 0  9992", "line2": "2 34985  86.3698  55.5052 0021059 208.7794 325.5524 14.42024534872212"}}, "geometry": {"type": "Point", "coordinates": [-128.72782680253943, 47.4813160641944]}}, {"type": "Feature", "properties": {"norad_id": 35051, "name": "IRIDIUM 33 DEB", "group": "iridium-33-debris", "lat": 37.223403398445896, "lon": -175.60949554297383, "alt_km": 727.6126574717873, "timestamp": "2025-12-16T13:52:37.907396+00:00", "meta": {"OBJECT_NAME": "IRIDIUM 33 DEB", "OBJECT_ID": "1997-051NX", "EPOCH": "2025-12-11T08:47:57.045408", "MEAN_MOTION": 14.47588957, "ECCENTRICITY": 0.00106566, "INCLINATION": 86.3243, "RA_OF_ASC_NODE": 9.4603, "ARG_OF_PERICENTER": 94.8899, "MEAN_ANOMALY": 265.3522, "EPHEMERIS_TYPE": 0, "CLASSIFICATION_TYPE": "U", "NORAD_CAT_ID": 35051, "ELEMENT_SET_NO": 999, "REV_AT_EPOCH": 86976, "BSTAR": 0.001042299, "MEAN_MOTION_DOT": 3.858e-05, "MEAN_MOTION_DDOT": 0}, "tle": {"line1": "1 35051U 97051NX  25345.36663247  .00003858  00000+0  10423-2 0  9997", "line2": "2 35051  86.3243   9.4603 0010656  94.8899 265.3522 14.47588957869768"}}, "geometry": {"type": "Point", "coordinates": [-175.60949554297383, 37.223403398445896]}}, {"type": "Feature", "properties": {"norad_id": 35052, "name": "IRIDIUM 33 DEB", "group": "iridium-33-debris", "lat": 13.885044346720266, "lon": -162.07811232774569, "alt_km": 764.8698330921397, "timestamp": "2025-12-16T13:52:37.907413+00:00", "meta": {"OBJECT_NAME": "IRIDIUM 33 DEB", "OBJECT_ID": "1997-051NY", "EPOCH": "2025-12-15T20:24:53.339040", "MEAN_MOTION": 14.38495733, "ECCENTRICITY": 0.00135883, "INCLINATION": 86.3308, "RA_OF_ASC_NODE": 19.1426, "ARG_OF_PERICENTER": 76.4171, "MEAN_ANOMALY": 283.8539, "EPHEMERIS_TYPE": 0, "CLASSIFICATION_TYPE": "U", "NORAD_CAT_ID": 35052, "ELEMENT_SET_NO": 999, "REV_AT_EPOCH": 87320, "BSTAR": 0.00017238116, "MEAN_MOTION_DOT": 5.47e-06, "MEAN_MOTION_DDOT": 0}, "tle": {"line1": "1 35052U 97051NY  25349.85061735  .00000547  00000+0  17238-3 0  9994", "line2": "2 35052  86.3308  19.1426 0013588  76.4171 283.8539 14.38495733873204"}}, "geometry": {"type": "Point", "coordinates": [-162.07811232774569, 13.885044346720266]}}, {"type": "Feature", "properties": {"norad_id": 35080, "name": "IRIDIUM 33 DEB", "group": "iridium-33-debris", "lat": -77.95994095554286, "lon": 32.422018722254315, "alt_km": 633.6800486542552, "timestamp": "2025-12-16T13:52:37.907429+00:00", "meta": {"OBJECT_NAME": "IRIDIUM 33 DEB", "OBJECT_ID": "1997-051PF", "EPOCH": "2025-12-15T22:04:39.139680", "MEAN_MOTION": 14.86464911, "ECCENTRICITY": 0.00597118, "INCLINATION": 86.2076, "RA_OF_ASC_NODE": 50.8561, "ARG_OF_PERICENTER": 168.7581, "MEAN_ANOMALY": 191.4994, "EPHEMERIS_TYPE": 0, "CLASSIFICATION_TYPE": "U", "NORAD_CAT_ID": 35080, "ELEMENT_SET_NO": 999, "REV_AT_EPOCH": 69735, "BSTAR": 0.00478109, "MEAN_MOTION_DOT": 0.00043877, "MEAN_MOTION_DDOT": 0}, "tle": {"line1": "1 35080U 97051PF  25349.91989745  .00043877  00000+0  47811-2 0  9994", "line2": "2 35080  86.2076  50.8561 0059711 168.7581 191.4994 14.86464911697352"}}, "geometry": {"type": "Point", "coordinates": [32.422018722254315, -77.95994095554286]}}, {"type": "Feature", "properties": {"norad_id": 35297, "name": "IRIDIUM 33 DEB", "group": "iridium-33-debris", "lat": 14.909672794183567, "lon": -119.84158470054221, "alt_km": 732.2832687422615, "timestamp": "2025-12-16T13:52:37.907445+00:00", "meta": {"OBJECT_NAME": "IRIDIUM 33 DEB", "OBJECT_ID": "1997-051PM", "EPOCH": "2025-12-14T12:55:35.277600", "MEAN_MOTION": 14.45168041, "ECCENTRICITY": 0.00176283, "INCLINATION": 86.3867, "RA_OF_ASC_NODE": 61.9926, "ARG_OF_PERICENTER": 135.2135, "MEAN_ANOMALY": 225.0494, "EPHEMERIS_TYPE": 0, "CLASSIFICATION_TYPE": "U", "NORAD_CAT_ID": 35297, "ELEMENT_SET_NO": 999, "REV_AT_EPOCH": 70452, "BSTAR": 0.0006336217, "MEAN_MOTION_DOT": 2.241e-05, "MEAN_MOTION_DDOT": 0}, "tle": {"line1": "1 35297U 97051PM  25348.53860275  .00002241  00000+0  63362-3 0  9997", "line2": "2 35297  86.3867  61.9926 0017628 135.2135 225.0494 14.45168041704521"}}, "geometry": {"type": "Point", "coordinates": [-119.84158470054221, 14.909672794183567]}}, {"type": "Feature", "properties": {"norad_id": 35299, "name": "IRIDIUM 33 DEB", "group": "iridium-33-debris", "lat": 37.678803299341006, "lon": 34.3888681454271, "alt_km": 727.0119596836839, "timestamp": "2025-12-16T13:52:37.907461+00:00", "meta": {"OBJECT_NAME": "IRIDIUM 33 DEB", "OBJECT_ID": "1997-051PP", "EPOCH": "2025-12-15T21:50:14.877024", "MEAN_MOTION": 14.40877819, "ECCENTRICITY": 0.00589889, "INCLINATION": 86.2887, "RA_OF_ASC_NODE": 31.8064, "ARG_OF_PERICENTER": 92.3249, "MEAN_ANOMALY": 81.5744, "EPHEMERIS_TYPE": 0, "CLASSIFICATION_TYPE": "U", "NORAD_CAT_ID": 35299, "ELEMENT_SET_NO": 999, "REV_AT_EPOCH": 86376, "BSTAR": 0.00055865127, "MEAN_MOTION_DOT": 1.848e-05, "MEAN_MOTION_DDOT": 0}, "tle": {"line1": "1 35299U 97051PP  25349.90989441  .00001848  00000+0  55865-3 0  9999", "line2": "2 35299  86.2887  31.8064 0058988  92.3249  81.5744 14.40877819863766"}}, "geometry": {"type": "Point", "coordinates": [34.3888681454271, 37.678803299341006]}}]}